{
  "type": "FeatureCollection",
  "features": [
    {
      "type": "Feature",
      "properties": {
        "norad_id": 34141,
        "name": "COSMOS 2251 DEB",
        "group": "cosmos-2251-debris",
        "lat": -66.44667083211782,
        "lon": -116.98937544525118,
        "alt_km": 762.3057016762086,
        "timestamp": "2025-12-16T10:53:45.864940+00:00",
        "meta_object_name": "COSMOS 2251 DEB",
        "meta_object_id": "1993-036LN",
        "meta_epoch": "2025-12-15T12:56:30.765408",
        "meta_mean_motion": 14.49273967,
        "meta_eccentricity": 0.00469589,
        "meta_inclination": 74.0115,
        "meta_ra_of_asc_node": 23.6016,
        "meta_arg_of_pericenter": 108.9832,
        "meta_mean_anomaly": 52.4368,
        "meta_ephemeris_type": 0,
        "meta_classification_type": "U",
        "meta_norad_cat_id": 34141,
        "meta_element_set_no": 999,
        "meta_rev_at_epoch": 87734,
        "meta_bstar": 0.00092513108,
        "meta_mean_motion_dot": 3.552e-05,
        "meta_mean_motion_ddot": 0,
        "tle_line1": "1 34141U 93036LN  25349.53924497  .00003552  00000+0  92513-3 0  9997",
        "tle_line2": "2 34141  74.0115  23.6016 0046958 108.9832  52.4368 14.49273967877343"
      },
      "geometry": {
        "type": "Point",
        "coordinates": [
          -116.98937544525118,
          -66.44667083211782
        ]
      }
    },
    {
      "type": "Feature",
      "properties": {
        "norad_id": 34270,
        "name": "COSMOS 2251 DEB",
        "group": "cosmos-2251-debris",
        "lat": 57.18908879815809,
        "lon": -34.12517702051787,
        "alt_km": 641.3568330499766,
        "timestamp": "2025-12-16T10:53:45.864950+00:00",
        "meta_object_name": "COSMOS 2251 DEB",
        "meta_object_id": "1993-036LQ",
        "meta_epoch": "2025-12-15T21:30:38.435616",
        "meta_mean_motion": 14.65197059,
        "meta_eccentricity": 0.0047833,
        "meta_inclination": 74.0113,
        "meta_ra_of_asc_node": 300.5437,
        "meta_arg_of_pericenter": 92.3546,
        "meta_mean_anomaly": 268.31,
        "meta_ephemeris_type": 0,
        "meta_classification_type": "U",
        "meta_norad_cat_id": 34270,
        "meta_element_set_no": 999,
        "meta_rev_at_epoch": 89142,
        "meta_bstar": 0.00056874957,
        "meta_mean_motion_dot": 3.083e-05,
        "meta_mean_motion_ddot": 0,
        "tle_line1": "1 34270U 93036LQ  25349.89627819  .00003083  00000+0  56875-3 0  9997",
        "tle_line2": "2 34270  74.0113 300.5437 0047833  92.3546 268.3100 14.65197059891421"
      },
      "geometry": {
        "type": "Point",
        "coordinates": [
          -34.12517702051787,
          57.18908879815809
        ]
      }
    },
    {
      "type": "Feature",
      "properties": {
        "norad_id": 34271,
        "name": "COSMOS 2251 DEB",
        "group": "cosmos-2251-debris",
        "lat": 72.27041384169387,
        "lon": -104.21394674902594,
        "alt_km": 663.7113038685393,
        "timestamp": "2025-12-16T10:53:45.864961+00:00",
        "meta_object_name": "COSMOS 2251 DEB",
        "meta_object_id": "1993-036LR",
        "meta_epoch": "2025-12-15T07:34:34.161888",
        "meta_mean_motion": 14.70821945,
        "meta_eccentricity": 0.00187263,
        "meta_inclination": 74.0203,
        "meta_ra_of_asc_node": 194.3223,
        "meta_arg_of_pericenter": 248.1187,
        "meta_mean_anomaly": 289.2535,
        "meta_ephemeris_type": 0,
        "meta_classification_type": "U",
        "meta_norad_cat_id": 34271,
        "meta_element_set_no": 999,
        "meta_rev_at_epoch": 88272,
        "meta_bstar": 0.0011155944,
        "meta_mean_motion_dot": 6.81e-05,
        "meta_mean_motion_ddot": 0,
        "tle_line1": "1 34271U 93036LR  25349.31567317  .00006810  00000+0  11156-2 0  9994",
        "tle_line2": "2 34271  74.0203 194.3223 0018726 248.1187 289.2535 14.70821945882726"
      },
      "geometry": {
        "type": "Point",
        "coordinates": [
          -104.21394674902594,
          72.27041384169387
        ]
      }
    },
    {
      "type": "Feature",
      "properties": {
        "norad_id": 34273,
        "name": "COSMOS 2251 DEB",
        "group": "cosmos-2251-debris",
        "lat": -24.773028326701922,
        "lon": 72.7353970150444,
        "alt_km": 700.4286200856332,
        "timestamp": "2025-12-16T10:53:45.864971+00:00",
        "meta_object_name": "COSMOS 2251 DEB",
        "meta_object_id": "1993-036LT",
        "meta_epoch": "2025-12-15T09:02:44.972160",
        "meta_mean_motion": 14.61254552,
        "meta_eccentricity": 0.00139769,
        "meta_inclination": 74.0361,
        "meta_ra_of_asc_node": 82.3851,
        "meta_arg_of_pericenter": 208.4396,
        "meta_mean_anomaly": 221.9539,
        "meta_ephemeris_type": 0,
        "meta_classification_type": "U",
        "meta_norad_cat_id": 34273,
        "meta_element_set_no": 999,
        "meta_rev_at_epoch": 88660,
        "meta_bstar": 0.0006682703,
        "meta_mean_motion_dot": 3.272e-05,
        "meta_mean_motion_ddot": 0,
        "tle_line1": "1 34273U 93036LT  25349.37690940  .00003272  00000+0  66827-3 0  9996",
        "tle_line2": "2 34273  74.0361  82.3851 0013976 208.4396 221.9539 14.61254552886601"
      },
      "geometry": {
        "type": "Point",
        "coordinates": [
          72.7353970150444,
          -24.773028326701922
        ]
      }
    },
    {
      "type": "Feature",
      "properties": {
        "norad_id": 34274,
        "name": "COSMOS 2251 DEB",
        "group": "cosmos-2251-debris",
        "lat": 69.02142419550432,
        "lon": -167.01395952246938,
        "alt_km": 675.1407624184812,
        "timestamp": "2025-12-16T10:53:45.864981+00:00",
        "meta_object_name": "COSMOS 2251 DEB",
        "meta_object_id": "1993-036LU",
        "meta_epoch": "2025-12-15T15:26:40.794144",
        "meta_mean_motion": 14.64822131,
        "meta_eccentricity": 0.00218937,
        "meta_inclination": 74.0047,
        "meta_ra_of_asc_node": 62.9727,
        "meta_arg_of_pericenter": 212.8107,
        "meta_mean_anomaly": 298.9713,
        "meta_ephemeris_type": 0,
        "meta_classification_type": "U",
        "meta_norad_cat_id": 34274,
        "meta_element_set_no": 999,
        "meta_rev_at_epoch": 88718,
        "meta_bstar": 0.00071167426,
        "meta_mean_motion_dot": 3.782e-05,
        "meta_mean_motion_ddot": 0,
        "tle_line1": "1 34274U 93036LU  25349.64352771  .00003782  00000+0  71167-3 0  9993",
        "tle_line2": "2 34274  74.0047  62.9727 0021893 212.8107 298.9713 14.64822131887184"
      },
      "geometry": {
        "type": "Point",
        "coordinates": [
          -167.01395952246938,
          69.02142419550432
        ]
      }
    },
    {
      "type": "Feature",
      "properties": {
        "norad_id": 34276,
        "name": "COSMOS 2251 DEB",
        "group": "cosmos-2251-debris",
        "lat": -55.79982807728899,
        "lon": 53.327295250190275,
        "alt_km": 704.9384361312923,
        "timestamp": "2025-12-16T10:53:45.864991+00:00",
        "meta_object_name": "COSMOS 2251 DEB",
        "meta_object_id": "1993-036LW",
        "meta_epoch": "2025-12-15T07:25:17.763168",
        "meta_mean_motion": 14.57248925,
        "meta_eccentricity": 0.00224931,
        "meta_inclination": 74.0237,
        "meta_ra_of_asc_node": 80.4353,
        "meta_arg_of_pericenter": 226.8989,
        "meta_mean_anomaly": 190.4359,
        "meta_ephemeris_type": 0,
        "meta_classification_type": "U",
        "meta_norad_cat_id": 34276,
        "meta_element_set_no": 999,
        "meta_rev_at_epoch": 88630,
        "meta_bstar": 0.00057673607,
        "meta_mean_motion_dot": 2.587e-05,
        "meta_mean_motion_ddot": 0,
        "tle_line1": "1 34276U 93036LW  25349.30923337  .00002587  00000+0  57674-3 0  9999",
        "tle_line2": "2 34276  74.0237  80.4353 0022493 226.8989 190.4359 14.57248925886307"
      },
      "geometry": {
        "type": "Point",
        "coordinates": [
          53.327295250190275,
          -55.79982807728899
        ]
      }
    },
    {
      "type": "Feature",
      "properties": {
        "norad_id": 34297,
        "name": "COSMOS 2251 DEB",
        "group": "cosmos-2251-debris",
        "lat": 35.669677268218294,
        "lon": -70.74119868406642,
        "alt_km": 759.1989764470882,
        "timestamp": "2025-12-16T10:53:45.865001+00:00",
        "meta_object_name": "COSMOS 2251 DEB",
        "meta_object_id": "1993-036MT",
        "meta_epoch": "2025-12-15T23:24:06.499008",
        "meta_mean_motion": 14.36632249,
        "meta_eccentricity": 0.00174128,
        "meta_inclination": 74.0487,
        "meta_ra_of_asc_node": 278.2914,
        "meta_arg_of_pericenter": 346.2721,
        "meta_mean_anomaly": 95.0348,
        "meta_ephemeris_type": 0,
        "meta_classification_type": "U",
        "meta_norad_cat_id": 34297,
        "meta_element_set_no": 999,
        "meta_rev_at_epoch": 88111,
        "meta_bstar": 0.00013435117,
        "meta_mean_motion_dot": 3.7e-06,
        "meta_mean_motion_ddot": 0,
        "tle_line1": "1 34297U 93036MT  25349.97507522  .00000370  00000+0  13435-3 0  9994",
        "tle_line2": "2 34297  74.0487 278.2914 0017412 346.2721  95.0348 14.36632249881118"
      },
      "geometry": {
        "type": "Point",
        "coordinates": [
          -70.74119868406642,
          35.669677268218294
        ]
      }
    }
  ]
}